start=new Date('2021-11-02T00:00:00.000Z').valueOf();
sats=[{"ELEMENT_SET_NO":"999","MEAN_MOTION_DDOT":"0.0000000000000","BSTAR":"-0.00000817210000","RCS_SIZE":"LARGE","ECCENTRICITY":"0.00014320","MEAN_MOTION_DOT":"-0.00000403","EPHEMERIS_TYPE":"0","APOAPSIS":"548.197","GP_ID":"188696057","COUNTRY_CODE":"US","DECAY_DATE":null,"MEAN_ELEMENT_THEORY":"SGP4","ARG_OF_PERICENTER":"78.2753","OBJECT_ID":"2021-044BL","MEAN_ANOMALY":"281.8397","PERIAPSIS":"546.214","REF_FRAME":"TEME","CENTER_NAME":"EARTH","TLE_LINE1":"1 48696U 21044BL  21305.69878561 -.00000403  00000-0 -81721-5 0  9998","SEMIMAJOR_AXIS":"6925.340","TIME_SYSTEM":"UTC","LAUNCH_DATE":"2021-05-26","EPOCH":"2021-11-01T16:46:15.076704","REV_AT_EPOCH":"2463","PERIOD":"95.592","TLE_LINE2":"2 48696  53.0655  24.8323 0001432  78.2753 281.8397 15.06402704 24635","RA_OF_ASC_NODE":"24.8323","OBJECT_NAME":"STARLINK-2753","OBJECT_TYPE":"PAYLOAD","FILE":"3196819","NORAD_CAT_ID":"48696","MEAN_MOTION":"15.06402704","SITE":"AFETR","CLASSIFICATION_TYPE":"U","INCLINATION":"53.0655"},{"TLE_LINE2":"2 48697  53.0574  25.0162 0001207  92.7382 267.3746 15.06400866 24622","REV_AT_EPOCH":"2462","PERIOD":"95.592","EPOCH":"2021-11-01T15:58:28.600320","LAUNCH_DATE":"2021-05-26","TLE_LINE1":"1 48697U 21044BM  21305.66560880  .00001145  00000-0  95759-4 0  9995","SEMIMAJOR_AXIS":"6925.346","TIME_SYSTEM":"UTC","CENTER_NAME":"EARTH","REF_FRAME":"TEME","PERIAPSIS":"546.375","OBJECT_ID":"2021-044BM","MEAN_ANOMALY":"267.3746","INCLINATION":"53.0574","CLASSIFICATION_TYPE":"U","SITE":"AFETR","MEAN_MOTION":"15.06400866","NORAD_CAT_ID":"48697","FILE":"3196819","OBJECT_TYPE":"PAYLOAD","OBJECT_NAME":"STARLINK-2715","RA_OF_ASC_NODE":"25.0162","MEAN_MOTION_DOT":"0.00001145","ECCENTRICITY":"0.00012070","RCS_SIZE":"LARGE","BSTAR":"0.00009575900000","MEAN_MOTION_DDOT":"0.0000000000000","ELEMENT_SET_NO":"999","ARG_OF_PERICENTER":"92.7382","MEAN_ELEMENT_THEORY":"SGP4","DECAY_DATE":null,"COUNTRY_CODE":"US","GP_ID":"188696289","APOAPSIS":"548.047","EPHEMERIS_TYPE":"0"},{"MEAN_ELEMENT_THEORY":"SGP4","DECAY_DATE":null,"ARG_OF_PERICENTER":"204.2221","COUNTRY_CODE":"US","GP_ID":"188696540","APOAPSIS":"524.156","EPHEMERIS_TYPE":"0","MEAN_MOTION_DOT":"-0.00022816","ECCENTRICITY":"0.00089380","BSTAR":"-0.00118840000000","RCS_SIZE":"LARGE","MEAN_MOTION_DDOT":"0.0000000000000","ELEMENT_SET_NO":"999","INCLINATION":"97.5241","SITE":"AFETR","CLASSIFICATION_TYPE":"U","MEAN_MOTION":"15.15984757","NORAD_CAT_ID":"48879","FILE":"3196819","OBJECT_NAME":"STARLINK-3003","OBJECT_TYPE":"PAYLOAD","RA_OF_ASC_NODE":"73.4869","TLE_LINE2":"2 48879  97.5241  73.4869 0008938 204.2221 340.2820 15.15984757  3592","PERIOD":"94.988","REV_AT_EPOCH":"359","EPOCH":"2021-11-01T22:00:00.999936","LAUNCH_DATE":"2021-06-30","SEMIMAJOR_AXIS":"6896.128","TLE_LINE1":"1 48879U 21059A   21305.91667824 -.00022816  00000-0 -11884-2 0  9992","CENTER_NAME":"EARTH","TIME_SYSTEM":"UTC","MEAN_ANOMALY":"340.2820","OBJECT_ID":"2021-059A","PERIAPSIS":"511.829","REF_FRAME":"TEME"},{"NORAD_CAT_ID":"48880","MEAN_MOTION":"15.16592951","CLASSIFICATION_TYPE":"U","SITE":"AFETR","INCLINATION":"97.5237","RA_OF_ASC_NODE":"73.5087","OBJECT_TYPE":"PAYLOAD","OBJECT_NAME":"STARLINK-3004","FILE":"3196819","EPOCH":"2021-11-01T22:00:00.999936","PERIOD":"94.950","REV_AT_EPOCH":"359","TLE_LINE2":"2 48880  97.5237  73.5087 0009694 213.1805  23.0959 15.16592951  3590","REF_FRAME":"TEME","PERIAPSIS":"509.465","MEAN_ANOMALY":"23.0959","OBJECT_ID":"2021-059B","TLE_LINE1":"1 48880U 21059B   21305.91667824 -.00069444  00000-0 -35840-2 0  9990","TIME_SYSTEM":"UTC","SEMIMAJOR_AXIS":"6894.284","CENTER_NAME":"EARTH","LAUNCH_DATE":"2021-06-30","COUNTRY_CODE":"US","ARG_OF_PERICENTER":"213.1805","DECAY_DATE":null,"MEAN_ELEMENT_THEORY":"SGP4","EPHEMERIS_TYPE":"0","APOAPSIS":"522.832","GP_ID":"188695732","RCS_SIZE":"LARGE","BSTAR":"-0.00358400000000","ECCENTRICITY":"0.00096940","MEAN_MOTION_DOT":"-0.00069444","ELEMENT_SET_NO":"999","MEAN_MOTION_DDOT":"0.0000000000000"},{"BSTAR":"-0.00114090000000","RCS_SIZE":"LARGE","MEAN_MOTION_DOT":"-0.00021881","ECCENTRICITY":"0.00019800","ELEMENT_SET_NO":"999","MEAN_MOTION_DDOT":"0.0000000000000","COUNTRY_CODE":"US","MEAN_ELEMENT_THEORY":"SGP4","DECAY_DATE":null,"ARG_OF_PERICENTER":"202.1800","EPHEMERIS_TYPE":"0","GP_ID":"188695962","APOAPSIS":"519.386","EPOCH":"2021-11-01T22:00:00.999936","TLE_LINE2":"2 48881  97.5245  73.5011 0001980 202.1800 353.9809 15.15975648  3596","PERIOD":"94.988","REV_AT_EPOCH":"359","TLE_LINE1":"1 48881U 21059C   21305.91667824 -.00021881  00000-0 -11409-2 0  9999","TIME_SYSTEM":"UTC","SEMIMAJOR_AXIS":"6896.155","CENTER_NAME":"EARTH","MEAN_ANOMALY":"353.9809","OBJECT_ID":"2021-059C","REF_FRAME":"TEME","PERIAPSIS":"516.655","LAUNCH_DATE":"2021-06-30","MEAN_MOTION":"15.15975648","NORAD_CAT_ID":"48881","INCLINATION":"97.5245","SITE":"AFETR","CLASSIFICATION_TYPE":"U","RA_OF_ASC_NODE":"73.5011","FILE":"3196819","OBJECT_NAME":"STARLINK-3005","OBJECT_TYPE":"PAYLOAD"},{"EPHEMERIS_TYPE":"0","GP_ID":"188672336","APOAPSIS":"362.308","COUNTRY_CODE":"US","DECAY_DATE":null,"MEAN_ELEMENT_THEORY":"SGP4","ARG_OF_PERICENTER":"288.1135","ELEMENT_SET_NO":"999","MEAN_MOTION_DDOT":"0.0000000000000","BSTAR":"-0.00029726000000","RCS_SIZE":"LARGE","MEAN_MOTION_DOT":"-0.00035554","ECCENTRICITY":"0.00039960","RA_OF_ASC_NODE":"349.7555","FILE":"3196781","OBJECT_NAME":"STARLINK-3096","OBJECT_TYPE":"PAYLOAD","MEAN_MOTION":"15.69749499","NORAD_CAT_ID":"49131","INCLINATION":"70.0004","SITE":"AFWTR","CLASSIFICATION_TYPE":"U","SEMIMAJOR_AXIS":"6737.751","TLE_LINE1":"1 49131U 21082B   21305.91667824 -.00035554  00000-0 -29726-3 0  9998","TIME_SYSTEM":"UTC","CENTER_NAME":"EARTH","OBJECT_ID":"2021-082B","MEAN_ANOMALY":"300.8280","REF_FRAME":"TEME","PERIAPSIS":"356.923","LAUNCH_DATE":"2021-09-14","EPOCH":"2021-11-01T22:00:00.999936","TLE_LINE2":"2 49131  70.0004 349.7555 0003996 288.1135 300.8280 15.69749499  7768","PERIOD":"91.734","REV_AT_EPOCH":"776"},{"LAUNCH_DATE":"2021-09-14","PERIAPSIS":"357.193","REF_FRAME":"TEME","MEAN_ANOMALY":"293.9147","OBJECT_ID":"2021-082C","TLE_LINE1":"1 49132U 21082C   21305.91667824  .00067649  00000-0  56524-3 0  9993","TIME_SYSTEM":"UTC","SEMIMAJOR_AXIS":"6737.922","CENTER_NAME":"EARTH","REV_AT_EPOCH":"367","PERIOD":"91.738","TLE_LINE2":"2 49132  69.9998 349.7568 0003850 292.8984 293.9147 15.69689697  3678","EPOCH":"2021-11-01T22:00:00.999936","OBJECT_TYPE":"PAYLOAD","OBJECT_NAME":"STARLINK-3090","FILE":"3196819","RA_OF_ASC_NODE":"349.7568","CLASSIFICATION_TYPE":"U","SITE":"AFWTR","INCLINATION":"69.9998","NORAD_CAT_ID":"49132","MEAN_MOTION":"15.69689697","MEAN_MOTION_DDOT":"0.0000000000000","ELEMENT_SET_NO":"999","ECCENTRICITY":"0.00038500","MEAN_MOTION_DOT":"0.00067649","RCS_SIZE":"LARGE","BSTAR":"0.00056524000000","APOAPSIS":"362.381","GP_ID":"188696223","EPHEMERIS_TYPE":"0","ARG_OF_PERICENTER":"292.8984","MEAN_ELEMENT_THEORY":"SGP4","DECAY_DATE":null,"COUNTRY_CODE":"US"},{"MEAN_MOTION_DDOT":"0.0000000000000","ELEMENT_SET_NO":"999","MEAN_MOTION_DOT":"-0.00021523","ECCENTRICITY":"0.00039100","BSTAR":"-0.00017895000000","RCS_SIZE":"LARGE","GP_ID":"188672344","APOAPSIS":"362.251","EPHEMERIS_TYPE":"0","DECAY_DATE":null,"MEAN_ELEMENT_THEORY":"SGP4","ARG_OF_PERICENTER":"292.3839","COUNTRY_CODE":"US","LAUNCH_DATE":"2021-09-14","TLE_LINE1":"1 49133U 21082D   21305.91667824 -.00021523  00000-0 -17895-3 0  9995","CENTER_NAME":"EARTH","SEMIMAJOR_AXIS":"6737.751","TIME_SYSTEM":"UTC","MEAN_ANOMALY":"298.6666","OBJECT_ID":"2021-082D","REF_FRAME":"TEME","PERIAPSIS":"356.982","TLE_LINE2":"2 49133  70.0002 349.7520 0003910 292.3839 298.6666 15.69749358  7760","PERIOD":"91.734","REV_AT_EPOCH":"776","EPOCH":"2021-11-01T22:00:00.999936","FILE":"3196782","OBJECT_NAME":"STARLINK-3077","OBJECT_TYPE":"PAYLOAD","RA_OF_ASC_NODE":"349.7520","INCLINATION":"70.0002","SITE":"AFWTR","CLASSIFICATION_TYPE":"U","MEAN_MOTION":"15.69749358","NORAD_CAT_ID":"49133"},{"RA_OF_ASC_NODE":"349.7440","FILE":"3196819","OBJECT_TYPE":"PAYLOAD","OBJECT_NAME":"STARLINK-3078","MEAN_MOTION":"15.69740900","NORAD_CAT_ID":"49134","INCLINATION":"70.0011","CLASSIFICATION_TYPE":"U","SITE":"AFWTR","TLE_LINE1":"1 49134U 21082E   21305.91667824 -.00032776  00000-0 -27390-3 0  9999","TIME_SYSTEM":"UTC","SEMIMAJOR_AXIS":"6737.775","CENTER_NAME":"EARTH","REF_FRAME":"TEME","PERIAPSIS":"356.902","OBJECT_ID":"2021-082E","MEAN_ANOMALY":"309.3618","LAUNCH_DATE":"2021-09-14","EPOCH":"2021-11-01T22:00:00.999936","TLE_LINE2":"2 49134  70.0011 349.7440 0004064 290.2224 309.3618 15.69740900  3675","PERIOD":"91.735","REV_AT_EPOCH":"367","EPHEMERIS_TYPE":"0","GP_ID":"188695762","APOAPSIS":"362.379","COUNTRY_CODE":"US","ARG_OF_PERICENTER":"290.2224","MEAN_ELEMENT_THEORY":"SGP4","DECAY_DATE":null,"ELEMENT_SET_NO":"999","MEAN_MOTION_DDOT":"0.0000000000000","RCS_SIZE":"LARGE","BSTAR":"-0.00027390000000","MEAN_MOTION_DOT":"-0.00032776","ECCENTRICITY":"0.00040640"},{"MEAN_ELEMENT_THEORY":"SGP4","DECAY_DATE":null,"ARG_OF_PERICENTER":"292.5049","COUNTRY_CODE":"US","GP_ID":"188672563","APOAPSIS":"362.377","EPHEMERIS_TYPE":"0","MEAN_MOTION_DOT":"-0.00055621","ECCENTRICITY":"0.00041020","BSTAR":"-0.00046713000000","RCS_SIZE":"LARGE","MEAN_MOTION_DDOT":"0.0000000000000","ELEMENT_SET_NO":"999","INCLINATION":"70.0003","SITE":"AFWTR","CLASSIFICATION_TYPE":"U","MEAN_MOTION":"15.69750405","NORAD_CAT_ID":"49135","FILE":"3196782","OBJECT_NAME":"STARLINK-3073","OBJECT_TYPE":"PAYLOAD","RA_OF_ASC_NODE":"349.7459","TLE_LINE2":"2 49135  70.0003 349.7459 0004102 292.5049 302.7786 15.69750405  7768","REV_AT_EPOCH":"776","PERIOD":"91.734","EPOCH":"2021-11-01T22:00:00.999936","LAUNCH_DATE":"2021-09-14","TLE_LINE1":"1 49135U 21082F   21305.91667824 -.00055621  00000-0 -46713-3 0  9994","SEMIMAJOR_AXIS":"6737.748","CENTER_NAME":"EARTH","TIME_SYSTEM":"UTC","OBJECT_ID":"2021-082F","MEAN_ANOMALY":"302.7786","REF_FRAME":"TEME","PERIAPSIS":"356.849"}];
